{
  "links" : {
    "next" : "https://api.nasa.gov/neo/rest/v1/feed?start_date=2008-10-23&end_date=2008-10-23&detailed=true&api_key=t0TVs3DtDT2H8Oy2Zy8m2eVrNsAVKAexjcZXUckd",
    "prev" : "https://api.nasa.gov/neo/rest/v1/feed?start_date=2008-10-21&end_date=2008-10-21&detailed=true&api_key=t0TVs3DtDT2H8Oy2Zy8m2eVrNsAVKAexjcZXUckd",
    "self" : "https://api.nasa.gov/neo/rest/v1/feed?start_date=2008-10-22&end_date=2008-10-22&detailed=true&api_key=t0TVs3DtDT2H8Oy2Zy8m2eVrNsAVKAexjcZXUckd"
  },
  "element_count" : 7,
  "near_earth_objects" : {
    "2008-10-22" : [ {
      "links" : {
        "self" : "https://api.nasa.gov/neo/rest/v1/neo/3092375?api_key=t0TVs3DtDT2H8Oy2Zy8m2eVrNsAVKAexjcZXUckd"
      },
      "neo_reference_id" : "3092375",
      "name" : "(2001 TB2)",
      "nasa_jpl_url" : "http://ssd.jpl.nasa.gov/sbdb.cgi?sstr=3092375",
      "absolute_magnitude_h" : 21.5,
      "estimated_diameter" : {
        "kilometers" : {
          "estimated_diameter_min" : 0.1332155667,
          "estimated_diameter_max" : 0.2978790628
        },
        "meters" : {
          "estimated_diameter_min" : 133.2155666981,
          "estimated_diameter_max" : 297.8790627982
        },
        "miles" : {
          "estimated_diameter_min" : 0.0827762899,
          "estimated_diameter_max" : 0.1850934111
        },
        "feet" : {
          "estimated_diameter_min" : 437.0589598459,
          "estimated_diameter_max" : 977.2935443908
        }
      },
      "is_potentially_hazardous_asteroid" : false,
      "close_approach_data" : [ {
        "close_approach_date" : "2008-10-22",
        "epoch_date_close_approach" : 1224658800000,
        "relative_velocity" : {
          "kilometers_per_second" : "16.6213027924",
          "kilometers_per_hour" : "59836.6900526749",
          "miles_per_hour" : "37180.1922163413"
        },
        "miss_distance" : {
          "astronomical" : "0.3836840696",
          "lunar" : "149.2530975342",
          "kilometers" : "57398320",
          "miles" : "35665664"
        },
        "orbiting_body" : "Earth"
      } ],
      "orbital_data" : {
        "orbit_id" : "16",
        "orbit_determination_date" : "2017-04-06 09:16:01",
        "orbit_uncertainty" : "7",
        "minimum_orbit_intersection" : ".135999",
        "jupiter_tisserand_invariant" : "4.492",
        "epoch_osculation" : "2458000.5",
        "eccentricity" : ".2265620447854792",
        "semi_major_axis" : "1.46079669129511",
        "inclination" : "25.69987119167573",
        "ascending_node_longitude" : "26.6973977086395",
        "orbital_period" : "644.8862120664743",
        "perihelion_distance" : "1.129835605899427",
        "perihelion_argument" : "351.7997912919619",
        "aphelion_distance" : "1.791757776690792",
        "perihelion_time" : "2457996.091523600976",
        "mean_anomaly" : "2.460979121515196",
        "mean_motion" : ".5582380166671814",
        "equinox" : "J2000"
      }
    }, {
      "links" : {
        "self" : "https://api.nasa.gov/neo/rest/v1/neo/3432678?api_key=t0TVs3DtDT2H8Oy2Zy8m2eVrNsAVKAexjcZXUckd"
      },
      "neo_reference_id" : "3432678",
      "name" : "(2008 UM1)",
      "nasa_jpl_url" : "http://ssd.jpl.nasa.gov/sbdb.cgi?sstr=3432678",
      "absolute_magnitude_h" : 32.1,
      "estimated_diameter" : {
        "kilometers" : {
          "estimated_diameter_min" : 0.0010105434,
          "estimated_diameter_max" : 0.0022596438
        },
        "meters" : {
          "estimated_diameter_min" : 1.0105434154,
          "estimated_diameter_max" : 2.2596437711
        },
        "miles" : {
          "estimated_diameter_min" : 6.279224E-4,
          "estimated_diameter_max" : 0.0014040771
        },
        "feet" : {
          "estimated_diameter_min" : 3.315431259,
          "estimated_diameter_max" : 7.41352967
        }
      },
      "is_potentially_hazardous_asteroid" : false,
      "close_approach_data" : [ {
        "close_approach_date" : "2008-10-22",
        "epoch_date_close_approach" : 1224658800000,
        "relative_velocity" : {
          "kilometers_per_second" : "18.1358141206",
          "kilometers_per_hour" : "65288.930834326",
          "miles_per_hour" : "40568.0026064733"
        },
        "miss_distance" : {
          "astronomical" : "0.0005718008",
          "lunar" : "0.2224305123",
          "kilometers" : "85540.1796875",
          "miles" : "53152.20703125"
        },
        "orbiting_body" : "Earth"
      } ],
      "orbital_data" : {
        "orbit_id" : "12",
        "orbit_determination_date" : "2017-04-06 09:02:30",
        "orbit_uncertainty" : "9",
        "minimum_orbit_intersection" : "1.16032E-5",
        "jupiter_tisserand_invariant" : "3.203",
        "epoch_osculation" : "2454761.5",
        "eccentricity" : ".6823832883945092",
        "semi_major_axis" : "2.335502326933729",
        "inclination" : "5.283451804728175",
        "ascending_node_longitude" : "208.9416504765725",
        "orbital_period" : "1303.673637248525",
        "perihelion_distance" : ".7417945690276627",
        "perihelion_argument" : "111.8738326761374",
        "aphelion_distance" : "3.929210084839795",
        "perihelion_time" : "2454719.649045004418",
        "mean_anomaly" : "11.55683705486893",
        "mean_motion" : ".2761427321333272",
        "equinox" : "J2000"
      }
    }, {
      "links" : {
        "self" : "https://api.nasa.gov/neo/rest/v1/neo/3434370?api_key=t0TVs3DtDT2H8Oy2Zy8m2eVrNsAVKAexjcZXUckd"
      },
      "neo_reference_id" : "3434370",
      "name" : "(2008 UX91)",
      "nasa_jpl_url" : "http://ssd.jpl.nasa.gov/sbdb.cgi?sstr=3434370",
      "absolute_magnitude_h" : 24.0,
      "estimated_diameter" : {
        "kilometers" : {
          "estimated_diameter_min" : 0.0421264611,
          "estimated_diameter_max" : 0.0941976306
        },
        "meters" : {
          "estimated_diameter_min" : 42.1264610556,
          "estimated_diameter_max" : 94.1976305719
        },
        "miles" : {
          "estimated_diameter_min" : 0.0261761612,
          "estimated_diameter_max" : 0.0585316759
        },
        "feet" : {
          "estimated_diameter_min" : 138.2101784897,
          "estimated_diameter_max" : 309.0473542854
        }
      },
      "is_potentially_hazardous_asteroid" : false,
      "close_approach_data" : [ {
        "close_approach_date" : "2008-10-22",
        "epoch_date_close_approach" : 1224658800000,
        "relative_velocity" : {
          "kilometers_per_second" : "14.4700549057",
          "kilometers_per_hour" : "52092.197660615",
          "miles_per_hour" : "32368.0658186194"
        },
        "miss_distance" : {
          "astronomical" : "0.1653331205",
          "lunar" : "64.3145828247",
          "kilometers" : "24733484",
          "miles" : "15368674"
        },
        "orbiting_body" : "Earth"
      } ],
      "orbital_data" : {
        "orbit_id" : "6",
        "orbit_determination_date" : "2017-04-06 09:02:24",
        "orbit_uncertainty" : "9",
        "minimum_orbit_intersection" : ".165211",
        "jupiter_tisserand_invariant" : "4.513",
        "epoch_osculation" : "2454768.5",
        "eccentricity" : ".2157950418115533",
        "semi_major_axis" : "1.446552611020428",
        "inclination" : "27.24176296215559",
        "ascending_node_longitude" : "32.84933377859295",
        "orbital_period" : "635.4769129920275",
        "perihelion_distance" : "1.134393729842663",
        "perihelion_argument" : "329.0235581347567",
        "aphelion_distance" : "1.758711492198192",
        "perihelion_time" : "2454731.825242692230",
        "mean_anomaly" : "20.77638441439782",
        "mean_motion" : ".5665036646335514",
        "equinox" : "J2000"
      }
    } ]
  }
}